MEAN_MOTION;ECCENTRICITY;INCLINATION;RA_OF_ASC_NODE;ARG_OF_PERICENTER;MEAN_ANOMALY;BSTAR;MEAN_MOTION_DOT;MEAN_MOTION_DDOT;TYPE
14.48134823;0.0139169;96.4709;201.2033;17.2153;343.3696;1.9194E-5;4.9E-7;0;Amateur
14.48134864;0.0139137;96.4709;201.4683;16.1143;344.4414;1.9218E-5;4.9E-7;0;Amateur
14.48134969;0.0139071;96.471;201.9984;13.9166;346.5803;1.9122E-5;4.8E-7;0;Amateur
14.48135072;0.0139027;96.4711;202.3694;12.3758;348.0797;2.0388E-5;5.4E-7;0;Amateur
14.48135128;0.0138976;96.4711;202.7404;10.8357;349.5782;2.0306E-5;5.3E-7;0;Amateur
14.48135189;0.013894;96.4712;203.1114;9.296;351.0761;1.9956E-5;5.2E-7;0;Amateur
14.48135267;0.0138896;96.4713;203.4294;7.9767;352.3594;2.0322E-5;5.3E-7;0;Amateur
14.48135339;0.0138844;96.4713;203.8534;6.2148;354.0731;2.0264E-5;5.3E-7;0;Amateur
14.48135449;0.0138753;96.4714;204.5955;3.132;357.0714;1.964E-5;5.0E-7;0;Amateur
14.4813556;0.0138705;96.4715;204.9666;1.5942;358.567;2.0196E-5;5.2E-7;0;Amateur
14.48135577;0.0138649;96.4716;205.3907;359.8329;0.28;1.8887E-5;4.7E-7;0;Amateur
14.48135674;0.0138593;96.4716;205.8147;358.0714;1.9932;1.9288E-5;4.8E-7;0;Amateur
14.48135805;0.0138546;96.4717;206.1858;356.5204;3.5017;2.0639E-5;5.4E-7;0;Amateur
14.48135884;0.013849;96.4718;206.6099;354.7545;5.2194;2.034E-5;5.3E-7;0;Amateur
14.48136082;0.0138415;96.4719;207.3521;351.6615;8.2283;2.0995E-5;5.5E-7;0;Amateur
14.48136266;0.0138327;96.472;208.0412;348.79;11.0224;2.132E-5;5.7E-7;0;Amateur
14.48136284;0.0138321;96.4721;208.0943;348.5681;11.2384;2.1552E-5;5.8E-7;0;Amateur
14.48136485;0.0138248;96.4722;208.7834;345.689;14.0409;2.33E-5;6.5E-7;0;Amateur
14.48136508;0.0138232;96.4721;208.8895;345.2469;14.4712;2.317E-5;6.4E-7;0;Amateur
14.48136631;0.0138137;96.4723;209.6847;341.9327;17.6987;2.0804E-5;5.4E-7;0;Amateur
14.48136678;0.0138115;96.4723;209.8967;341.045;18.5635;2.0931E-5;5.5E-7;0;Amateur
14.48136754;0.0138078;96.4724;210.1618;339.9423;19.6379;2.1248E-5;5.6E-7;0;Amateur
14.48136812;0.0138047;96.4724;210.4269;338.8352;20.7168;2.0518E-5;5.3E-7;0;Amateur
14.48136914;0.0138006;96.4725;210.798;337.2848;22.228;2.1349E-5;5.6E-7;0;Amateur
14.48136939;0.0137985;96.4726;210.9571;336.621;22.8751;2.1528E-5;5.7E-7;0;Amateur
14.48136988;0.0137959;96.4726;211.2221;335.512;23.9565;2.1014E-5;5.5E-7;0;Amateur
14.48137081;0.0137907;96.4726;211.6463;333.7378;25.6871;2.1198E-5;5.6E-7;0;Amateur
14.48137084;0.0137906;96.4727;211.6993;333.5159;25.9035;2.0997E-5;5.5E-7;0;Amateur
14.48137136;0.0137879;96.4727;211.9644;332.4066;26.986;2.0119E-5;5.1E-7;0;Amateur
14.48137227;0.0137829;96.4728;212.4416;330.4107;28.9341;2.0505E-5;5.3E-7;0;Amateur
14.48137307;0.0137797;96.4728;212.7597;329.0799;30.2337;2.1005E-5;5.5E-7;0;Amateur
14.48137424;0.0137724;96.4729;213.4489;326.1942;33.0531;1.9228E-5;4.7E-7;0;Amateur
14.48137427;0.0137719;96.4729;213.502;325.9728;33.2695;1.9083E-5;4.7E-7;0;Amateur
14.48137629;0.0137646;96.4731;214.2442;322.8629;36.3106;2.1562E-5;5.7E-7;0;Amateur
14.48137745;0.0137568;96.4732;215.0396;319.5305;39.5724;1.9043E-5;4.6E-7;0;Amateur
14.48137904;0.0137514;96.4734;215.6759;316.863;42.1857;2.0175E-5;5.1E-7;0;Amateur
14.48137928;0.0137501;96.4734;215.8349;316.196;42.8396;2.0007E-5;5.0E-7;0;Amateur
14.48138118;0.0137446;96.4735;216.4712;313.5234;45.4608;2.0863E-5;5.4E-7;0;Amateur
14.48138138;0.0137438;96.4736;216.5773;313.0781;45.8978;2.0944E-5;5.4E-7;0;Amateur
14.48138212;0.0137418;96.4736;216.8954;311.7421;47.2093;2.0959E-5;5.4E-7;0;Amateur
14.48138324;0.0137382;96.4737;217.3196;309.9617;48.9579;2.1368E-5;5.6E-7;0;Amateur
14.48138409;0.0137363;96.4737;217.6378;308.6247;50.2718;2.1621E-5;5.7E-7;0;Amateur
14.48138542;0.0137325;96.4739;218.062;306.8448;52.022;2.249E-5;6.1E-7;0;Amateur
14.4813882;0.0137272;96.474;218.8574;303.5049;55.3094;2.5422E-5;7.3E-7;0;Amateur
14.48139065;0.0137231;96.4741;219.6529;300.161;58.605;2.6938E-5;7.9E-7;0;Amateur
14.48139153;0.0137219;96.4742;219.865;299.2697;59.4842;2.8395E-5;8.5E-7;0;Amateur
14.48139339;0.0137185;96.4743;220.3954;297.0419;61.6833;2.9453E-5;9.0E-7;0;Amateur
14.48139482;0.0137169;96.4744;220.7666;295.4819;63.2242;3.0717E-5;9.5E-7;0;Amateur
14.48139655;0.0137136;96.4745;221.1909;293.6976;64.9883;3.2745E-5;1.03E-6;0;Amateur
14.48139896;0.0137106;96.4746;221.8273;291.0179;67.6399;3.387E-5;1.08E-6;0;Amateur
14.48139929;0.0137105;96.4746;221.9334;290.5698;68.0836;3.3918E-5;1.08E-6;0;Amateur
14.48140186;0.0137077;96.4748;222.676;287.4491;71.1762;3.4315E-5;1.1E-6;0;Amateur
14.48140191;0.0137077;96.4748;222.729;287.2271;71.3963;3.412E-5;1.09E-6;0;Amateur
14.4814045;0.0137063;96.4749;223.4715;284.1005;74.4993;3.2881E-5;1.04E-6;0;Amateur
14.4814045;0.0137063;96.4749;223.4715;284.1005;74.4993;3.2881E-5;1.04E-6;0;Amateur
14.48140717;0.0137054;96.475;224.2671;280.7581;77.8214;3.1658E-5;9.9E-7;0;Amateur
14.48140764;0.0137044;96.4751;224.4792;279.8677;78.7073;3.0545E-5;9.4E-7;0;Amateur
14.48140909;0.0137035;96.4752;225.0096;277.6361;80.9292;2.7444E-5;8.1E-7;0;Amateur
14.48140977;0.0137034;96.4752;225.3278;276.2974;82.2631;2.5556E-5;7.3E-7;0;Amateur
14.48141114;0.0137022;96.4752;225.8051;274.2849;84.2702;2.4512E-5;6.9E-7;0;Amateur
14.48141343;0.0137013;96.4754;226.5477;271.1576;87.3928;2.2821E-5;6.2E-7;0;Amateur
14.48141478;0.0137015;96.4755;227.1842;268.4823;90.0677;2.1033E-5;5.4E-7;0;Amateur
14.48141483;0.0137018;96.4755;227.2372;268.2585;90.2915;2.0592E-5;5.2E-7;0;Amateur
14.48141704;0.0137039;96.4757;228.0329;264.9096;93.6449;2.0515E-5;5.2E-7;0;Amateur
14.48141705;0.0137041;96.4756;228.086;264.6863;93.8687;2.0412E-5;5.2E-7;0;Amateur
14.48141928;0.0137059;96.4758;228.8286;261.5572;97.0071;2.2479E-5;6.0E-7;0;Amateur
14.48142212;0.0137086;96.476;229.6244;258.2106;100.3688;2.6389E-5;7.7E-7;0;Amateur
14.48142277;0.0137098;96.476;229.8366;257.3186;101.2656;2.7455E-5;8.1E-7;0;Amateur
14.48142471;0.0137117;96.4761;230.367;255.0861;103.512;3.0196E-5;9.3E-7;0;Amateur
14.4814255;0.0137129;96.4762;230.6323;253.9726;104.6333;3.1172E-5;9.7E-7;0;Amateur
14.48142587;0.013713;96.4762;230.6853;253.7495;104.8581;3.1997E-5;1.0E-6;0;Amateur
14.48142736;0.0137147;96.4763;231.1097;251.9639;106.6576;3.3882E-5;1.08E-6;0;Amateur
14.4814287;0.0137157;96.4764;231.4811;250.4076;108.2273;3.5776E-5;1.16E-6;0;Amateur
14.48143151;0.0137186;96.4765;232.2238;247.2881;111.3767;3.8277E-5;1.27E-6;0;Amateur
14.4814325;0.0137207;96.4766;232.6483;245.5038;113.1801;3.7337E-5;1.23E-6;0;Amateur
14.4814326;0.0137211;96.4766;232.7013;245.2816;113.4048;3.7411E-5;1.23E-6;0;Amateur
14.48143528;0.0137258;96.4767;233.4441;242.1598;116.5637;3.6808E-5;1.21E-6;0;Amateur
14.48143613;0.0137279;96.4767;233.7093;241.0455;117.6921;3.6287E-5;1.19E-6;0;Amateur
14.48143822;0.013732;96.4768;234.2398;238.8156;119.9521;3.6324E-5;1.19E-6;0;Amateur
14.4814392;0.0137344;96.4768;234.5582;237.4798;121.3069;3.4687E-5;1.12E-6;0;Amateur
14.4814404;0.013738;96.4769;234.9826;235.6972;123.1159;3.1886E-5;1.0E-6;0;Amateur
14.48144159;0.0137408;96.477;235.354;234.1415;124.6958;3.0195E-5;9.3E-7;0;Amateur
14.48144251;0.0137439;96.477;235.7253;232.5832;126.2793;2.7972E-5;8.4E-7;0;Amateur
14.48144478;0.0137503;96.4772;236.4681;229.4705;129.4452;2.3802E-5;6.7E-7;0;Amateur
14.48144487;0.0137507;96.4772;236.5212;229.2478;129.6718;2.3539E-5;6.6E-7;0;Amateur
14.48144687;0.0137571;96.4773;237.264;226.1382;132.8385;2.0922E-5;5.5E-7;0;Amateur
14.48144828;0.0137605;96.4774;237.6353;224.586;134.4205;2.1105E-5;5.6E-7;0;Amateur
14.48144927;0.0137645;96.4775;238.0598;222.8073;136.2343;1.9318E-5;4.8E-7;0;Amateur
14.48144927;0.0137645;96.4775;238.0598;222.8073;136.2343;1.9318E-5;4.8E-7;0;Amateur
14.48145021;0.0137681;96.4775;238.3781;221.4767;137.5918;1.9419E-5;4.9E-7;0;Amateur
14.48145168;0.0137719;96.4777;238.8026;219.6978;139.4078;2.0823E-5;5.5E-7;0;Amateur
14.48145256;0.0137747;96.4777;239.0678;218.5889;140.5403;2.1912E-5;5.9E-7;0;Amateur
14.48145274;0.0137754;96.4777;239.1739;218.1448;140.994;2.1312E-5;5.7E-7;0;Amateur
14.48145413;0.01378;96.4778;239.5984;216.3675;142.8101;2.3116E-5;6.4E-7;0;Amateur
14.48145507;0.0137834;96.4779;239.9699;214.8177;144.3945;2.3903E-5;6.8E-7;0;Amateur
14.48145594;0.0137877;96.478;240.3413;213.2645;145.9832;2.4688E-5;7.1E-7;0;Amateur
14.48145816;0.0137967;96.4782;241.0842;210.1614;149.159;2.8217E-5;8.6E-7;0;Amateur
14.48145865;0.013797;96.4782;241.1373;209.9391;149.3866;2.994E-5;9.3E-7;0;Amateur
14.48146117;0.0138056;96.4783;241.8802;206.8373;152.5638;3.3852E-5;1.1E-6;0;Amateur
14.48146487;0.0138172;96.4785;242.8884;202.6302;156.8768;3.8863E-5;1.31E-6;0;Amateur
14.48146543;0.0138185;96.4785;242.9945;202.1863;157.332;3.9591E-5;1.34E-6;0;Amateur
14.48146854;0.0138283;96.4787;243.7905;198.868;160.7366;4.0761E-5;1.39E-6;0;Amateur
14.48146994;0.0138333;96.4787;244.162;197.3218;162.3236;4.1056E-5;1.4E-6;0;Amateur
14.48147165;0.0138382;96.4788;244.5865;195.553;164.1397;4.0408E-5;1.38E-6;0;Amateur
14.48147405;0.013843;96.4789;244.958;194.0083;165.726;4.2473E-5;1.46E-6;0;Amateur
14.48147609;0.0138475;96.4789;245.3294;192.4625;167.3138;4.2841E-5;1.48E-6;0;Amateur
14.48147658;0.0138523;96.479;245.7009;190.9175;168.9009;3.7172E-5;1.24E-6;0;Amateur
14.48147971;0.0138624;96.4791;246.4969;187.6088;172.3009;3.182E-5;1.02E-6;0;Amateur
14.48148021;0.0138648;96.4791;246.7092;186.7266;173.2076;2.9833E-5;9.4E-7;0;Amateur
14.48148318;0.0138716;96.4792;247.2399;184.5211;175.4745;3.0407E-5;9.6E-7;0;Amateur
14.48148443;0.0138749;96.4792;247.5052;183.4198;176.6066;3.0339E-5;9.6E-7;0;Amateur
14.48148567;0.0138824;96.4793;248.0359;181.2138;178.8744;2.3539E-5;6.7E-7;0;Amateur
14.48148656;0.0138852;96.4793;248.3013;180.1148;180.0042;2.2593E-5;6.3E-7;0;Amateur
14.48148761;0.0138916;96.4794;248.7789;178.1338;182.0408;1.9072E-5;4.9E-7;0;Amateur
14.48148965;0.0138963;96.4795;249.1504;176.5912;183.6267;2.1653E-5;6.0E-7;0;Amateur
14.48148981;0.0139017;96.4796;249.575;174.8308;185.4365;1.674E-5;3.9E-7;0;Amateur
14.48149154;0.0139115;96.4797;250.3179;171.7545;188.5988;1.66E-5;3.8E-7;0;Amateur
14.48149349;0.0139224;96.4798;251.114;168.4574;191.9873;1.8904E-5;4.8E-7;0;Amateur
14.48149397;0.0139249;96.4798;251.3263;167.5802;192.8887;1.9822E-5;5.2E-7;0;Amateur
